{
"type": "FeatureCollection",
"name": "ncsu-campus-perimeters",
"crs": { "type": "name", "properties": { "name": "urn:ogc:def:crs:OGC:1.3:CRS84" } },
"features": [
{ "type": "Feature", "properties": { "OBJECTID": 42, "Precinct_N": "Centennial Campus", "story_group": "centennial" }, "geometry": { "type": "MultiPolygon", "coordinates": [ [ [ [ -78.681639163186745, 35.774672334738682 ], [ -78.68163089454616, 35.774494089248776 ], [ -78.681579693499842, 35.774495665282075 ], [ -78.68155665167717, 35.774048748261407 ], [ -78.681591748729375, 35.773801195920377 ], [ -78.682396931816513, 35.773745427650077 ], [ -78.68238880798198, 35.774001775619233 ], [ -78.681639163186745, 35.774672334738682 ] ] ], [ [ [ -78.668795825729077, 35.755745322689933 ], [ -78.670371712258159, 35.754665087049347 ], [ -78.673616584435536, 35.755504207658745 ], [ -78.673223879260519, 35.755619401499203 ], [ -78.671622211104307, 35.755894292732691 ], [ -78.671378644250936, 35.755906513413642 ], [ -78.66993411600258, 35.755973350794797 ], [ -78.668795825729077, 35.755745322689933 ] ] ], [ [ [ -78.682147275186168, 35.753786800657394 ], [ -78.6821635993104, 35.752580019621533 ], [ -78.687766797448333, 35.752712832790998 ], [ -78.683931778470651, 35.753488600414236 ], [ -78.682147275186168, 35.753786800657394 ] ] ], [ [ [ -78.663007252843244, 35.759217994956366 ], [ -78.662114103355123, 35.758346323995596 ], [ -78.66159730922675, 35.75869720357084 ], [ -78.658368161278048, 35.758703092268881 ], [ -78.658243435724529, 35.758306992464703 ], [ -78.658191658048992, 35.758308374055119 ], [ -78.657618792425737, 35.756489023938279 ], [ -78.659397057322664, 35.757051030829487 ], [ -78.662090532933291, 35.757674164048339 ], [ -78.663888290873942, 35.758381234861872 ], [ -78.663007252843244, 35.759217994956366 ] ] ], [ [ [ -78.665273825438192, 35.77640497346168 ], [ -78.663290862611305, 35.776185493028073 ], [ -78.663560363867404, 35.774578144473466 ], [ -78.665354501254512, 35.774642307883546 ], [ -78.66513001752746, 35.773583803119941 ], [ -78.665228928789801, 35.772934033559508 ], [ -78.665860101376111, 35.773073550610448 ], [ -78.665876789941535, 35.773023303725502 ], [ -78.666429499881176, 35.773140818733658 ], [ -78.66630400022612, 35.772699435109494 ], [ -78.665755233716425, 35.771950551167251 ], [ -78.665014703352853, 35.770341480708097 ], [ -78.666125248465718, 35.769920017043702 ], [ -78.666851648127363, 35.769784766649046 ], [ -78.666823035446797, 35.768747232563463 ], [ -78.665584667081205, 35.767883478604084 ], [ -78.664834623690538, 35.76676440714045 ], [ -78.664135470898088, 35.765282969331317 ], [ -78.66751974560421, 35.76307897179484 ], [ -78.668339285120666, 35.763772917213323 ], [ -78.668718316999559, 35.764142544700761 ], [ -78.669113526309133, 35.764637125119883 ], [ -78.669099467454487, 35.764815959521776 ], [ -78.669318104757565, 35.765131805088785 ], [ -78.669490585306448, 35.765210274513692 ], [ -78.669761525242848, 35.765609178388587 ], [ -78.670035746525002, 35.766381500985737 ], [ -78.670158093862923, 35.767179303218875 ], [ -78.670125540044566, 35.7679828745839 ], [ -78.669938884802065, 35.768772361475285 ], [ -78.669789062679754, 35.76915570069977 ], [ -78.66934313435749, 35.76997392772028 ], [ -78.669162356547588, 35.770044491285347 ], [ -78.668994453182037, 35.770380268941281 ], [ -78.669047596017023, 35.770528526992614 ], [ -78.668907123130339, 35.770808434839708 ], [ -78.668909676074776, 35.77092835573778 ], [ -78.668595382459273, 35.771691470606406 ], [ -78.668481053806914, 35.772127899275247 ], [ -78.668387231552472, 35.773016373720793 ], [ -78.668408385240909, 35.77346230384947 ], [ -78.668556247484972, 35.774240229544098 ], [ -78.668709025672342, 35.774686827157332 ], [ -78.668903593570448, 35.775043419949007 ], [ -78.669161356549481, 35.775372320524312 ], [ -78.669476528786149, 35.775666145363161 ], [ -78.669822571653867, 35.775906863414626 ], [ -78.670182104912612, 35.776094228142227 ], [ -78.671105466716838, 35.776392569874467 ], [ -78.670887930792475, 35.776427288217313 ], [ -78.670393218036708, 35.776584772946727 ], [ -78.670340502365931, 35.776514950578509 ], [ -78.670191162877629, 35.776459490119755 ], [ -78.669497382936626, 35.776453541118073 ], [ -78.669520421567412, 35.776356600384027 ], [ -78.668438032148046, 35.776446205226904 ], [ -78.666085116723792, 35.777030530982444 ], [ -78.66524141873451, 35.777345467887947 ], [ -78.665273825438192, 35.77640497346168 ] ] ], [ [ [ -78.669592562080325, 35.775046229034373 ], [ -78.669290314546345, 35.774579893120425 ], [ -78.669103447743453, 35.77407497208204 ], [ -78.668990012582213, 35.773339408977535 ], [ -78.668991327312824, 35.77278318462529 ], [ -78.669066750507966, 35.772230365832499 ], [ -78.669280926663092, 35.771509855089612 ], [ -78.669671253323514, 35.770775283740633 ], [ -78.669885798840184, 35.77067376120587 ], [ -78.670053755513266, 35.770337984308767 ], [ -78.66999547650839, 35.770156207744442 ], [ -78.670504336300368, 35.768958906749809 ], [ -78.670714964365999, 35.76820081753776 ], [ -78.670786298089837, 35.76742571331981 ], [ -78.670747337189482, 35.766843384951407 ], [ -78.670629567291385, 35.766268144329139 ], [ -78.670350671549571, 35.765430842679741 ], [ -78.670079624872315, 35.764957745850033 ], [ -78.669613650244699, 35.764385469355325 ], [ -78.669099125864889, 35.763859233587695 ], [ -78.66826048127524, 35.76311617682547 ], [ -78.666927553198946, 35.762123960489987 ], [ -78.667717357178773, 35.76142380809339 ], [ -78.66400334774842, 35.759267429109748 ], [ -78.664854264030879, 35.758686181577303 ], [ -78.66618847500547, 35.758893766484292 ], [ -78.667076811242936, 35.758803150299705 ], [ -78.668085514411587, 35.758369496341317 ], [ -78.668858838367143, 35.757931632983343 ], [ -78.669860338268407, 35.757562599771823 ], [ -78.675221682603109, 35.756478428247149 ], [ -78.677548358474382, 35.756116994837228 ], [ -78.679804391265208, 35.755460820647784 ], [ -78.681420416744558, 35.755183669129842 ], [ -78.682718424678825, 35.75486162603864 ], [ -78.691539830567507, 35.753058516649411 ], [ -78.692844097341649, 35.752821285565531 ], [ -78.693774507780105, 35.752844881748537 ], [ -78.693773237628506, 35.753272556476205 ], [ -78.69430037727561, 35.753285490311349 ], [ -78.694417949252241, 35.753141298990236 ], [ -78.694263389467082, 35.753878128810086 ], [ -78.694293326446356, 35.753887387873121 ], [ -78.693898476728393, 35.754619465603753 ], [ -78.693854289484307, 35.754397970877235 ], [ -78.693562409709472, 35.754476923800866 ], [ -78.693338963193767, 35.754649161059 ], [ -78.692876528221774, 35.755214617306741 ], [ -78.692762593657363, 35.755149811835317 ], [ -78.689084397064164, 35.759529080240888 ], [ -78.688972964298372, 35.765433668540368 ], [ -78.690739571491562, 35.765426003134607 ], [ -78.690739064699557, 35.765502457238924 ], [ -78.69069383803631, 35.766238578432436 ], [ -78.688957472164475, 35.766255604373121 ], [ -78.688895937555941, 35.769520281945475 ], [ -78.682347222957091, 35.769431170988774 ], [ -78.682367900026946, 35.771303458786434 ], [ -78.681693758563412, 35.77130068230381 ], [ -78.681678604867216, 35.772130239447712 ], [ -78.681508974044306, 35.774046578451618 ], [ -78.681533661130203, 35.774713841030881 ], [ -78.68146884054164, 35.774709367605901 ], [ -78.681450430833337, 35.774833081985712 ], [ -78.680770917752596, 35.775404046817471 ], [ -78.679419223048626, 35.776200058934414 ], [ -78.679315017517382, 35.775803501900825 ], [ -78.679136817152255, 35.77586148155995 ], [ -78.678398244368154, 35.77590961922111 ], [ -78.675218687503303, 35.776517570479292 ], [ -78.674512810821028, 35.776529733111346 ], [ -78.674477333701077, 35.776935323014065 ], [ -78.673947578368995, 35.776823882155014 ], [ -78.671060417699579, 35.776051053984766 ], [ -78.670583070635303, 35.775844827009024 ], [ -78.670152612493183, 35.775578752008911 ], [ -78.669780238766535, 35.775259749451138 ], [ -78.669592562080325, 35.775046229034373 ] ] ] ] } },
{ "type": "Feature", "properties": { "OBJECTID": 43, "Precinct_N": "Central Campus", "story_group": "main" }, "geometry": { "type": "MultiPolygon", "coordinates": [ [ [ [ -78.685662641843763, 35.789776613703118 ], [ -78.685832441413439, 35.789574609542079 ], [ -78.685803180757731, 35.78983776021466 ], [ -78.685662641843763, 35.789776613703118 ] ] ], [ [ [ -78.694007021446083, 35.787050034665121 ], [ -78.697291352791993, 35.787047064273743 ], [ -78.69664373978641, 35.789283040448176 ], [ -78.693931374475639, 35.789200768361113 ], [ -78.694007021446083, 35.787050034665121 ] ] ], [ [ [ -78.690910642574735, 35.7892117598117 ], [ -78.690914662254713, 35.789138058905067 ], [ -78.690439640407931, 35.789123468838866 ], [ -78.68685313034635, 35.789022921586692 ], [ -78.686851034433204, 35.789083098123442 ], [ -78.686273648065537, 35.78907520688491 ], [ -78.686753449249451, 35.788507324730311 ], [ -78.686962899997624, 35.788170702153323 ], [ -78.687106090152852, 35.78763468189463 ], [ -78.68712778675156, 35.787194258949178 ], [ -78.687224701123384, 35.787107021357173 ], [ -78.693804501629046, 35.787106362012828 ], [ -78.693727123480031, 35.789198953548357 ], [ -78.691755132055746, 35.789150360744799 ], [ -78.691752115503235, 35.789232745069448 ], [ -78.690910642574735, 35.7892117598117 ] ] ], [ [ [ -78.682800578540963, 35.789502522302705 ], [ -78.68156198149623, 35.788858734044815 ], [ -78.679965587894486, 35.78817271565638 ], [ -78.665432069683519, 35.782852014636227 ], [ -78.665893994064149, 35.782048811314034 ], [ -78.666589885980599, 35.781862053938617 ], [ -78.668016000358364, 35.781970494983398 ], [ -78.668228554617485, 35.781910206894899 ], [ -78.668359996462755, 35.781425501637479 ], [ -78.668272761988803, 35.781058712878156 ], [ -78.66801277763625, 35.780995226665624 ], [ -78.667473560735033, 35.78115355967558 ], [ -78.667263991679818, 35.780570218924339 ], [ -78.667299622103911, 35.78005182274574 ], [ -78.667936624563097, 35.779702248415205 ], [ -78.668151847296841, 35.779631232643254 ], [ -78.670679900905029, 35.779767388631868 ], [ -78.671676379490506, 35.779924443241306 ], [ -78.675653619688504, 35.781043295845251 ], [ -78.684013269479465, 35.784634878290952 ], [ -78.684843979593637, 35.78496052964401 ], [ -78.685339127325861, 35.785108004300895 ], [ -78.685978468929605, 35.785211364528138 ], [ -78.686476910353932, 35.785220928914633 ], [ -78.686959688682677, 35.785168597920794 ], [ -78.686912019099807, 35.787575804972548 ], [ -78.686784448152181, 35.788100613674658 ], [ -78.686554523099133, 35.788468185961101 ], [ -78.68615909542163, 35.788920982812023 ], [ -78.685970483456188, 35.788915690846359 ], [ -78.685892065966982, 35.788995952704276 ], [ -78.685863671352237, 35.789265514238139 ], [ -78.685513215298883, 35.78968107399465 ], [ -78.685248728670217, 35.789462276302189 ], [ -78.684769341081449, 35.790669216958321 ], [ -78.682800578540963, 35.789502522302705 ] ] ] ] } },
{ "type": "Feature", "properties": { "OBJECTID": 44, "Precinct_N": "Lake Wheeler", "story_group": "other" }, "geometry": { "type": "Polygon", "coordinates": [ [ [ -78.69761053862068, 35.742867133204115 ], [ -78.697611478595803, 35.740849908236171 ], [ -78.700152249805114, 35.740586202965531 ], [ -78.701649530424291, 35.740598095889396 ], [ -78.701863636874762, 35.734638541721175 ], [ -78.697901341481924, 35.734671032409082 ], [ -78.69788968552524, 35.736456831190914 ], [ -78.697192275619699, 35.736448911792806 ], [ -78.697141089062541, 35.737161019457972 ], [ -78.696294791675612, 35.737130735822646 ], [ -78.696206799121228, 35.737840308466112 ], [ -78.697784604090216, 35.737847003923285 ], [ -78.698161007446629, 35.737550540223168 ], [ -78.69827232131955, 35.737690661208852 ], [ -78.697760865344307, 35.738093103662933 ], [ -78.69772618700577, 35.738455223579287 ], [ -78.692963747402629, 35.738215894343405 ], [ -78.69297004895526, 35.738463644482209 ], [ -78.692847320341301, 35.738533612167906 ], [ -78.692987503027737, 35.738586485245619 ], [ -78.692979452755182, 35.738781924809544 ], [ -78.693347728383046, 35.739120270551574 ], [ -78.693448280821201, 35.739306287652674 ], [ -78.692959180559257, 35.739755699886679 ], [ -78.692278215465564, 35.74120550634224 ], [ -78.691953672817988, 35.741108360181983 ], [ -78.691937362629986, 35.741151744596323 ], [ -78.691743218937901, 35.741106325913464 ], [ -78.691606065384633, 35.741495908345172 ], [ -78.691249638589056, 35.741412207156692 ], [ -78.690911673875533, 35.742372977090398 ], [ -78.691269418445074, 35.742458597961395 ], [ -78.691028741063931, 35.743134853754768 ], [ -78.690735924433866, 35.744515644893106 ], [ -78.690703449147094, 35.744504150313368 ], [ -78.690724761081682, 35.744259802070829 ], [ -78.690388207322229, 35.744131758843629 ], [ -78.690488482024449, 35.743320024156688 ], [ -78.690136713112054, 35.743291442479091 ], [ -78.690145367296552, 35.742758830973223 ], [ -78.690266892214382, 35.741800428785282 ], [ -78.690707062150977, 35.74103437753746 ], [ -78.691377304357758, 35.740672689823668 ], [ -78.691773990552832, 35.740736614007872 ], [ -78.691759601943915, 35.738216463676359 ], [ -78.69053852265273, 35.738170174045791 ], [ -78.690385437814555, 35.740522731028506 ], [ -78.690230753144689, 35.740508987569157 ], [ -78.690005675601071, 35.740578381868616 ], [ -78.689881721059507, 35.740832318948812 ], [ -78.689388286837328, 35.741086045825952 ], [ -78.688849812377384, 35.741301360461655 ], [ -78.689156000438231, 35.738117772534849 ], [ -78.684939653441674, 35.737965904990659 ], [ -78.685606346756018, 35.733970812727193 ], [ -78.684887353942017, 35.733949098805773 ], [ -78.684942023916904, 35.733672564713217 ], [ -78.685224346847718, 35.733693859514489 ], [ -78.68524631818309, 35.733561207975903 ], [ -78.684797366560218, 35.733526035442885 ], [ -78.684852119300658, 35.733128309002453 ], [ -78.684579169478454, 35.733105644107276 ], [ -78.684583527742532, 35.73267660726151 ], [ -78.68387915274883, 35.732687049747746 ], [ -78.683884798868618, 35.733046139851588 ], [ -78.683730615975904, 35.733069740889022 ], [ -78.683750957110064, 35.733151754536671 ], [ -78.683884383671511, 35.733133484317619 ], [ -78.683875921219311, 35.733369245006536 ], [ -78.682630807815315, 35.733336657405957 ], [ -78.682770409132829, 35.732342733641708 ], [ -78.682721798330036, 35.732342066155297 ], [ -78.682777808265939, 35.731944976508323 ], [ -78.683504760494372, 35.731996777750538 ], [ -78.683666315782901, 35.731903089122525 ], [ -78.683960416595326, 35.731589156801348 ], [ -78.684064929036637, 35.731232775309543 ], [ -78.684069697053161, 35.730374010306491 ], [ -78.684213050846594, 35.730379410922623 ], [ -78.684257623100834, 35.72987514755151 ], [ -78.682937739927681, 35.729866616533684 ], [ -78.682173490210801, 35.735605470670919 ], [ -78.682046688222471, 35.736268106729369 ], [ -78.681705537735169, 35.737653407869111 ], [ -78.681030139982013, 35.737622265065532 ], [ -78.680832120398946, 35.73843049888157 ], [ -78.681506555133083, 35.738461389661047 ], [ -78.68068015212728, 35.741816872064334 ], [ -78.679888928763091, 35.741924052816827 ], [ -78.679800521077212, 35.74189578629241 ], [ -78.679195197854895, 35.741446172352177 ], [ -78.678784366160102, 35.741274468237279 ], [ -78.678787997454265, 35.74116793082117 ], [ -78.678506056220471, 35.741080857227004 ], [ -78.678243969647468, 35.741644304179445 ], [ -78.675408085588785, 35.740569399175278 ], [ -78.675601348319418, 35.740189619712318 ], [ -78.675614936661603, 35.73976575987858 ], [ -78.672719649645003, 35.738552167005416 ], [ -78.672055638173674, 35.737779728862847 ], [ -78.672032908140025, 35.736690846359579 ], [ -78.672207891983547, 35.734886419335439 ], [ -78.670819252056972, 35.734892880761876 ], [ -78.669297059395774, 35.732524220415549 ], [ -78.668956985359003, 35.731520157450582 ], [ -78.666732040968768, 35.731494159111051 ], [ -78.666686405704368, 35.726574650463618 ], [ -78.66463974748342, 35.72658998824307 ], [ -78.664653353097364, 35.726507190369389 ], [ -78.666514652215568, 35.726495692931977 ], [ -78.666605436439909, 35.72413121956896 ], [ -78.669809764629335, 35.724119328786642 ], [ -78.66988265786874, 35.722497678335969 ], [ -78.675906834641623, 35.722715581031323 ], [ -78.675877880856433, 35.725765884836747 ], [ -78.676040677164266, 35.72632073802361 ], [ -78.676342519932533, 35.726775546028023 ], [ -78.677686580132843, 35.72818139440426 ], [ -78.67900546055084, 35.729780201158434 ], [ -78.679356471961569, 35.730074637738014 ], [ -78.679904246847187, 35.730331776801115 ], [ -78.680399747148016, 35.730432132885348 ], [ -78.68245946748803, 35.730435710737979 ], [ -78.682814827933001, 35.730760543426854 ], [ -78.682919981763561, 35.729940910158859 ], [ -78.68248028901327, 35.730270772457018 ], [ -78.680653981489016, 35.730279108702696 ], [ -78.68008343824313, 35.730208440250557 ], [ -78.679763806746607, 35.730097975313022 ], [ -78.679479661261681, 35.729943882366115 ], [ -78.679166062720157, 35.729680080192601 ], [ -78.677959614592467, 35.728210650503549 ], [ -78.676497279536434, 35.72666852924916 ], [ -78.67629507963899, 35.726385726138531 ], [ -78.676122294670506, 35.725973050401301 ], [ -78.676067966305851, 35.725539242562277 ], [ -78.676156818871732, 35.719424005431406 ], [ -78.678724152961479, 35.719520156206386 ], [ -78.678811604891024, 35.716876580706106 ], [ -78.679186208965049, 35.71689828917463 ], [ -78.680177775997834, 35.717061023454121 ], [ -78.68048361248951, 35.717178780683831 ], [ -78.680753605558436, 35.71722738497396 ], [ -78.680896337214591, 35.717335311131123 ], [ -78.681236745884846, 35.717426858822357 ], [ -78.681329005662079, 35.717410785660292 ], [ -78.681468355872866, 35.71753397953816 ], [ -78.681700913014126, 35.717593484020895 ], [ -78.681920887158569, 35.717605101658101 ], [ -78.68236142380016, 35.717757595855943 ], [ -78.683108376466109, 35.717810003849749 ], [ -78.68352167619426, 35.717719211874339 ], [ -78.683636449497385, 35.717590228205829 ], [ -78.683826685111896, 35.717522088862871 ], [ -78.68392329978272, 35.71753504091879 ], [ -78.683995623883021, 35.717598379293328 ], [ -78.684170103482927, 35.717634219744475 ], [ -78.684260948737062, 35.717775846373058 ], [ -78.68436669076587, 35.717840215827998 ], [ -78.684578228038035, 35.717868053000672 ], [ -78.684874230390378, 35.717966476322076 ], [ -78.68514049473832, 35.71794155392206 ], [ -78.685230816542742, 35.717672822652744 ], [ -78.685203869438567, 35.717483341740895 ], [ -78.685924220801681, 35.717246261205091 ], [ -78.686775966486266, 35.717090088581017 ], [ -78.687317147226423, 35.716709309752638 ], [ -78.689027139243052, 35.716241385263423 ], [ -78.689831434242251, 35.716173137101457 ], [ -78.690630868083417, 35.71627234419821 ], [ -78.69252033357418, 35.716763521390291 ], [ -78.692748666886544, 35.721647650610265 ], [ -78.701799609490109, 35.72169352991375 ], [ -78.702590973779891, 35.723500678972307 ], [ -78.703574181328108, 35.724047302387895 ], [ -78.704678617098494, 35.725263859921981 ], [ -78.705228899500071, 35.725269194736143 ], [ -78.705275582923818, 35.726495167785941 ], [ -78.706488457024918, 35.727155017475283 ], [ -78.706747356766911, 35.728034941244353 ], [ -78.708643274312323, 35.727520427565203 ], [ -78.710323187992557, 35.725984459203403 ], [ -78.710492333475472, 35.725650131434747 ], [ -78.7105077826849, 35.725320243177428 ], [ -78.712666144501554, 35.725341049299445 ], [ -78.712417708834181, 35.731937502753304 ], [ -78.71390441726497, 35.731971263199732 ], [ -78.713959662460809, 35.73746672089846 ], [ -78.710449042751151, 35.737429002562521 ], [ -78.71037534552616, 35.74174134077159 ], [ -78.708307749758504, 35.741750469200298 ], [ -78.708300278875399, 35.74251741802842 ], [ -78.706583770057662, 35.742493080928462 ], [ -78.706542781590116, 35.745458610008711 ], [ -78.697609418287527, 35.745274378467791 ], [ -78.697637373734665, 35.744305193413297 ], [ -78.697823423609094, 35.743853255516157 ], [ -78.69812355415705, 35.74344412803552 ], [ -78.69761053862068, 35.742867133204115 ] ], [ [ -78.678949673625908, 35.738353590671537 ], [ -78.680271422992959, 35.738434312507202 ], [ -78.679993643509377, 35.737885822522095 ], [ -78.678967093859526, 35.737886759000226 ], [ -78.678949673625908, 35.738353590671537 ] ], [ [ -78.6919867124425, 35.730439467329504 ], [ -78.688913562673179, 35.730414483586934 ], [ -78.688570812651989, 35.732421427072225 ], [ -78.692157237919801, 35.732464341056598 ], [ -78.692118638589648, 35.732376094800031 ], [ -78.69223906827095, 35.732042051814695 ], [ -78.692182309405013, 35.731916900277476 ], [ -78.692242309550906, 35.731637912852797 ], [ -78.692143224298505, 35.731194645707575 ], [ -78.691972643754198, 35.730763255071487 ], [ -78.691841356284485, 35.730617233886463 ], [ -78.6919867124425, 35.730439467329504 ] ] ] } },
{ "type": "Feature", "properties": { "OBJECTID": 46, "Precinct_N": "Reedy Creek", "story_group": "other" }, "geometry": { "type": "MultiPolygon", "coordinates": [ [ [ [ -78.734458538095794, 35.823467301652329 ], [ -78.734465725581614, 35.823436170825289 ], [ -78.73491508058666, 35.823424955658069 ], [ -78.735562420120687, 35.823216529482011 ], [ -78.735413798691198, 35.823519894203855 ], [ -78.734458538095794, 35.823467301652329 ] ] ], [ [ [ -78.734496893741365, 35.823301173871755 ], [ -78.734834528631723, 35.821838773537529 ], [ -78.73549948228856, 35.821875527178598 ], [ -78.7353436689408, 35.822813304544702 ], [ -78.735380624713756, 35.823055625440674 ], [ -78.735488198383663, 35.823092940702551 ], [ -78.734851613055483, 35.823295811531523 ], [ -78.734496893741365, 35.823301173871755 ] ] ], [ [ [ -78.705892079642183, 35.809903425136262 ], [ -78.706161843457792, 35.809854458075137 ], [ -78.706555891490837, 35.809960235890443 ], [ -78.707538759884429, 35.810684492107271 ], [ -78.706957115199913, 35.811039154136118 ], [ -78.705953894324793, 35.811217011672746 ], [ -78.705756032244253, 35.810093381907578 ], [ -78.705892079642183, 35.809903425136262 ] ] ], [ [ [ -78.739456221628416, 35.819961638340764 ], [ -78.739888791834389, 35.819977168367487 ], [ -78.740354030627358, 35.820050786260779 ], [ -78.741450647515094, 35.820338500610539 ], [ -78.741845816777342, 35.820705054631759 ], [ -78.741643363478033, 35.821521941078849 ], [ -78.741260477995553, 35.822186137603666 ], [ -78.736591101046571, 35.821927538410556 ], [ -78.736784922172205, 35.821583857503484 ], [ -78.737099610804265, 35.821150807432254 ], [ -78.737884232562351, 35.820386865999311 ], [ -78.738677941962735, 35.820072793146245 ], [ -78.739097745437476, 35.819990072968146 ], [ -78.739456221628416, 35.819961638340764 ] ] ], [ [ [ -78.725435844812509, 35.832485151563894 ], [ -78.725548027177155, 35.828633909441301 ], [ -78.724907829874496, 35.828654094741644 ], [ -78.724990491191932, 35.826049526300793 ], [ -78.722235676276597, 35.825803415385742 ], [ -78.722209824925073, 35.830258904531568 ], [ -78.722141644727799, 35.830218745331358 ], [ -78.721967036171876, 35.830227620110442 ], [ -78.721506886907974, 35.830128185751235 ], [ -78.721364210504973, 35.830045095810242 ], [ -78.721138979570597, 35.829815349527053 ], [ -78.721022788435647, 35.829757740027645 ], [ -78.721036815345599, 35.829605296490179 ], [ -78.720939425954583, 35.829476814023515 ], [ -78.720895651934526, 35.829328345522917 ], [ -78.720955433607273, 35.829234746543776 ], [ -78.720921209754806, 35.829133876722523 ], [ -78.720952646692851, 35.829065442033404 ], [ -78.721141938633139, 35.828957521549562 ], [ -78.721187709303678, 35.828891696494487 ], [ -78.721099904241584, 35.828797230694377 ], [ -78.721121900387388, 35.828653908787594 ], [ -78.720991709132562, 35.828501304623174 ], [ -78.72104528179257, 35.828372830528416 ], [ -78.720811791546268, 35.828459864934381 ], [ -78.720743927553514, 35.828445114208257 ], [ -78.720634455118045, 35.828283285104511 ], [ -78.720381709970781, 35.828203890384572 ], [ -78.720430716410036, 35.82805376687859 ], [ -78.720286174611829, 35.828027846458745 ], [ -78.720224659088458, 35.827891714927802 ], [ -78.720104366294862, 35.827922339162569 ], [ -78.720024431181358, 35.827866364005139 ], [ -78.720014004798657, 35.827836463584404 ], [ -78.72008586587377, 35.82778631803496 ], [ -78.720019896029797, 35.827719549032622 ], [ -78.719999617341315, 35.827606176091358 ], [ -78.719888912464754, 35.827549409990574 ], [ -78.71985710718856, 35.827480672470323 ], [ -78.719894527927366, 35.827388192490709 ], [ -78.719934629863261, 35.827379541705952 ], [ -78.720026063064296, 35.8275188364032 ], [ -78.720110409160725, 35.827517994469346 ], [ -78.720113293101761, 35.827415150010758 ], [ -78.720217779031685, 35.827320630056313 ], [ -78.720201644863849, 35.827231290771365 ], [ -78.720096656162085, 35.827227786912964 ], [ -78.720024484348883, 35.827124601527984 ], [ -78.719895811688275, 35.827141297847831 ], [ -78.719826320317111, 35.826994503002055 ], [ -78.719730868912663, 35.826918551778817 ], [ -78.719521833466416, 35.826887519394369 ], [ -78.719528322669333, 35.826837054272204 ], [ -78.719705095430569, 35.82668842907929 ], [ -78.719551796424653, 35.826630551601632 ], [ -78.71959007666446, 35.826417894421262 ], [ -78.719378466941876, 35.826392335965828 ], [ -78.719299437245695, 35.826330859744751 ], [ -78.719296198168706, 35.826284839229444 ], [ -78.719379002137501, 35.826238151548083 ], [ -78.71927042344231, 35.826178835370278 ], [ -78.719244477663239, 35.82612210609215 ], [ -78.719380593044164, 35.826026613213983 ], [ -78.719273136331779, 35.825882993411206 ], [ -78.719158381430745, 35.825902995551481 ], [ -78.719081497027219, 35.825697623554397 ], [ -78.719240495808592, 35.825685105320822 ], [ -78.719256844618286, 35.825596549119695 ], [ -78.719175662908413, 35.825538331571309 ], [ -78.719168027126997, 35.825429454538217 ], [ -78.719097486961076, 35.825465863602602 ], [ -78.719050307236813, 35.825452183491556 ], [ -78.71890427033685, 35.82524975793693 ], [ -78.718923806268918, 35.825087199720947 ], [ -78.719082373295919, 35.825083615617309 ], [ -78.719090139037661, 35.825031780698026 ], [ -78.718825844345403, 35.824884017809843 ], [ -78.718857572857559, 35.824247068911383 ], [ -78.71892318456473, 35.824177329002019 ], [ -78.718622234293491, 35.823898994085013 ], [ -78.718497416043775, 35.823901281899239 ], [ -78.718488798021923, 35.823832923760925 ], [ -78.718323956102992, 35.823703079842794 ], [ -78.718413058687347, 35.82366430572597 ], [ -78.71834542659839, 35.823592210396583 ], [ -78.718258162215719, 35.82358719199388 ], [ -78.718289348651084, 35.823471888814986 ], [ -78.71804265475437, 35.823235391515979 ], [ -78.718027647923947, 35.823065540943666 ], [ -78.718258723830502, 35.823184038286229 ], [ -78.718488246078792, 35.823138038122757 ], [ -78.718418288230694, 35.822888896488173 ], [ -78.718172390519584, 35.82266632144745 ], [ -78.717941539637394, 35.822725190802352 ], [ -78.717608365665029, 35.822501546431582 ], [ -78.717755763107334, 35.822434584293852 ], [ -78.717821620500857, 35.822290498035862 ], [ -78.717785754010961, 35.822178989332869 ], [ -78.717491679234243, 35.822107044085506 ], [ -78.717304989938228, 35.821959975837025 ], [ -78.717082659122823, 35.821993116716129 ], [ -78.716953392114021, 35.821822313852365 ], [ -78.716981439653466, 35.821636932091288 ], [ -78.716841866819593, 35.821517620939773 ], [ -78.716658711926129, 35.821565278814276 ], [ -78.716498401551902, 35.821469256414545 ], [ -78.716462962515635, 35.821354823449148 ], [ -78.716502787167158, 35.82129825728088 ], [ -78.716397190120503, 35.821230011328318 ], [ -78.716315162450371, 35.821296448008376 ], [ -78.716248874578866, 35.821200655782022 ], [ -78.716426154898599, 35.821027639825331 ], [ -78.716170698430076, 35.82100850116732 ], [ -78.716109444985548, 35.820923196793196 ], [ -78.715958104983343, 35.820916992742347 ], [ -78.716066710366874, 35.821084496577456 ], [ -78.715878877368539, 35.821138320137052 ], [ -78.715784792735761, 35.821037995838147 ], [ -78.715611575249866, 35.821014241827264 ], [ -78.715554990429482, 35.82091760566793 ], [ -78.715447075312412, 35.820911861947174 ], [ -78.715369089123243, 35.82078393816829 ], [ -78.715063121594028, 35.82086202699805 ], [ -78.715133246351058, 35.820942895535282 ], [ -78.715093854167492, 35.820993970442267 ], [ -78.714786739651103, 35.820919422043083 ], [ -78.714616081093709, 35.821008302510378 ], [ -78.714710082890434, 35.819103124357582 ], [ -78.712179209841054, 35.819038614378904 ], [ -78.714883878015513, 35.815612425101051 ], [ -78.715202325113125, 35.815578307748837 ], [ -78.715927697047064, 35.815887012914075 ], [ -78.716096503063397, 35.815842248389977 ], [ -78.716725142713258, 35.816202226661126 ], [ -78.719557399990293, 35.818207935093255 ], [ -78.722805524263848, 35.820591762687215 ], [ -78.72673362307961, 35.822950234640224 ], [ -78.727531019227172, 35.823567413526824 ], [ -78.727755189004171, 35.823862390057712 ], [ -78.728167997409898, 35.824615888822152 ], [ -78.728366711855301, 35.824835086326893 ], [ -78.728572806571677, 35.824988526928863 ], [ -78.728960570930354, 35.825167105651374 ], [ -78.729333472772922, 35.825249663547588 ], [ -78.729758545138424, 35.825242538852756 ], [ -78.730287283231732, 35.825125239598947 ], [ -78.730515224974695, 35.825814270308165 ], [ -78.730508937399733, 35.826436165295625 ], [ -78.730374609340601, 35.826633332229768 ], [ -78.730048473549843, 35.82643429104975 ], [ -78.729635701446824, 35.826542235591084 ], [ -78.729285212991542, 35.826564469631741 ], [ -78.729211387607691, 35.826448402363944 ], [ -78.728671752531966, 35.826417157349773 ], [ -78.728280671460908, 35.826590569731984 ], [ -78.728015534585452, 35.826440248109385 ], [ -78.727852557095233, 35.826501695954896 ], [ -78.727960368247338, 35.826795376320703 ], [ -78.727591626197338, 35.826854485147223 ], [ -78.727433783531296, 35.827142598431038 ], [ -78.727115445625429, 35.827132433921214 ], [ -78.72697682498746, 35.830471425800276 ], [ -78.727000514750216, 35.831447962475195 ], [ -78.726969652258362, 35.832468330056464 ], [ -78.725435844812509, 35.832485151563894 ] ] ], [ [ [ -78.726864342692039, 35.822824157902303 ], [ -78.722819301608894, 35.820385743469309 ], [ -78.719084674422191, 35.817648809705915 ], [ -78.719984478535508, 35.816757328301961 ], [ -78.720962476725916, 35.81517377740623 ], [ -78.721433957051346, 35.814501710735883 ], [ -78.721731258056266, 35.814093496677152 ], [ -78.722497869122677, 35.813318448115695 ], [ -78.722848335575506, 35.812790563624894 ], [ -78.722746413722135, 35.81202297649439 ], [ -78.722132493136201, 35.81118469090341 ], [ -78.721158252184381, 35.809974301614702 ], [ -78.722188757298241, 35.809026720340562 ], [ -78.723316857845447, 35.808799716762991 ], [ -78.72657969939273, 35.810241159325386 ], [ -78.729801631967419, 35.812098293590516 ], [ -78.732551642030799, 35.814042743841853 ], [ -78.732508935324532, 35.814206626667186 ], [ -78.732828360007105, 35.814508318706146 ], [ -78.732883183192044, 35.814503295848517 ], [ -78.733012775151082, 35.814711679445324 ], [ -78.733239753284906, 35.8146689087081 ], [ -78.733837694597298, 35.815154077632222 ], [ -78.733869284070352, 35.815676818802224 ], [ -78.733831063712628, 35.815888277995512 ], [ -78.733672954187469, 35.81601499933732 ], [ -78.733787369546391, 35.816222493462099 ], [ -78.733859065382703, 35.816216472284999 ], [ -78.734643502823602, 35.817052839387443 ], [ -78.734828478770112, 35.817732846218206 ], [ -78.735085748083264, 35.819381429329574 ], [ -78.735013708248431, 35.820908067797568 ], [ -78.734863901611803, 35.821837748622727 ], [ -78.730367806799109, 35.821592426463852 ], [ -78.730474090934663, 35.822340951875049 ], [ -78.730389159957497, 35.822899826361471 ], [ -78.730249336408164, 35.823229877491393 ], [ -78.730323035177491, 35.823636289710741 ], [ -78.730143187749817, 35.823956293248031 ], [ -78.73039645925077, 35.824125297622466 ], [ -78.730110260998174, 35.824469957008567 ], [ -78.730237653425561, 35.824963381917293 ], [ -78.72990337959726, 35.825056040532353 ], [ -78.729554511938289, 35.825099918144154 ], [ -78.729257715771737, 35.825075211708125 ], [ -78.728986848410699, 35.825003019574133 ], [ -78.728658083585898, 35.824833158376379 ], [ -78.728368030337592, 35.824566191769051 ], [ -78.727883054820794, 35.823705563202545 ], [ -78.727499918616303, 35.823288150446878 ], [ -78.726864342692039, 35.822824157902303 ] ], [ [ -78.721842357257188, 35.815485580736627 ], [ -78.721129419399006, 35.815261506220125 ], [ -78.720813511723122, 35.815795795531869 ], [ -78.721743622190871, 35.815854948319178 ], [ -78.721842357257188, 35.815485580736627 ] ] ] ] } },
{ "type": "Feature", "properties": { "OBJECTID": 47, "Precinct_N": "South Campus", "story_group": "main" }, "geometry": { "type": "MultiPolygon", "coordinates": [ [ [ [ -78.684030985509253, 35.778876575375861 ], [ -78.684780106477319, 35.778706119668755 ], [ -78.68468823571736, 35.779137558370572 ], [ -78.684104210466927, 35.779118705200965 ], [ -78.684030985509253, 35.778876575375861 ] ] ], [ [ [ -78.679888835025665, 35.780357039495257 ], [ -78.679227660536668, 35.780058037551967 ], [ -78.678235513118622, 35.780260506650791 ], [ -78.677281537149995, 35.779851250757496 ], [ -78.676740376965725, 35.780689191975704 ], [ -78.676291207167139, 35.780500614418514 ], [ -78.676131927030866, 35.780747539024269 ], [ -78.675896805988131, 35.780651430324788 ], [ -78.67586541357808, 35.780557344307759 ], [ -78.676908199563968, 35.779339613077454 ], [ -78.678360260850454, 35.777506104895394 ], [ -78.67881540079118, 35.779124602035964 ], [ -78.679247674929016, 35.77913159972735 ], [ -78.679243681958653, 35.779031704481206 ], [ -78.680078979735541, 35.77906934197221 ], [ -78.679884061612341, 35.778091136214208 ], [ -78.679493941314803, 35.776533827777705 ], [ -78.6799277100598, 35.77632592464456 ], [ -78.679945222469385, 35.776254673028355 ], [ -78.680506637463026, 35.775983192950065 ], [ -78.680751163621139, 35.77579160685746 ], [ -78.680942092511614, 35.775699115764382 ], [ -78.681981849211894, 35.776174579712844 ], [ -78.682295701941541, 35.776397095406146 ], [ -78.682553966344841, 35.776662863581073 ], [ -78.682934832653274, 35.777267191451379 ], [ -78.682965130386066, 35.77725514535981 ], [ -78.683591683197164, 35.778297453562026 ], [ -78.683787440932377, 35.778759505460386 ], [ -78.684004047897147, 35.779666689591018 ], [ -78.684202750859427, 35.779636157906729 ], [ -78.684139388760656, 35.779285162776389 ], [ -78.687107193928881, 35.779397222898069 ], [ -78.68695818280996, 35.784708213294969 ], [ -78.686528704007301, 35.784751614790132 ], [ -78.686029669986056, 35.784748980434742 ], [ -78.685537290329734, 35.784682745068388 ], [ -78.685063698073591, 35.784554540921285 ], [ -78.678888927686941, 35.781928927502655 ], [ -78.679888835025665, 35.780357039495257 ] ] ] ] } },
{ "type": "Feature", "properties": { "OBJECTID": 48, "Precinct_N": "West Campus", "story_group": "vet" }, "geometry": { "type": "MultiPolygon", "coordinates": [ [ [ [ -78.709216633196107, 35.801960648385496 ], [ -78.709273513344641, 35.801030653424966 ], [ -78.71092823486147, 35.801105159651911 ], [ -78.710899093666953, 35.802299304039735 ], [ -78.710125205688513, 35.802212716118241 ], [ -78.709216633196107, 35.801960648385496 ] ] ], [ [ [ -78.696894231471077, 35.791456919310008 ], [ -78.697290117807043, 35.790151115370705 ], [ -78.698263898705335, 35.790347279373236 ], [ -78.698332531617197, 35.790209392173622 ], [ -78.698090682343278, 35.790113983388601 ], [ -78.698031109310321, 35.790032341578772 ], [ -78.698080342855746, 35.789181427341603 ], [ -78.698539798567083, 35.789079453674695 ], [ -78.69898054401169, 35.789057598064652 ], [ -78.698984687991469, 35.788909282974672 ], [ -78.698905717068982, 35.788907818747013 ], [ -78.697618901189983, 35.789058203929024 ], [ -78.697669484976117, 35.788816904195762 ], [ -78.697787230255116, 35.788558605817279 ], [ -78.697972291562579, 35.788802833495573 ], [ -78.698598005069883, 35.788872925782186 ], [ -78.69881411660613, 35.788301654994733 ], [ -78.697989088826901, 35.788127941574977 ], [ -78.698309686209413, 35.787533871376148 ], [ -78.699569166381352, 35.786288547892333 ], [ -78.699597005340195, 35.788096242375815 ], [ -78.701139371974236, 35.788124864880835 ], [ -78.700675842031714, 35.789423343859177 ], [ -78.700387674643864, 35.794866774893521 ], [ -78.698441390321136, 35.79485215523345 ], [ -78.69601870803622, 35.794774464018793 ], [ -78.696367306519193, 35.79361455781973 ], [ -78.696894231471077, 35.791456919310008 ] ] ], [ [ [ -78.699981311685789, 35.803316469311156 ], [ -78.698311503029075, 35.803172085559801 ], [ -78.6973242986396, 35.803182685336388 ], [ -78.695873675502412, 35.802548355825017 ], [ -78.694519673262448, 35.80153405183588 ], [ -78.694219827664384, 35.800844137722649 ], [ -78.69424344567625, 35.800577708133865 ], [ -78.694603432292553, 35.799154304192605 ], [ -78.694877115191886, 35.798240445668952 ], [ -78.695014270642787, 35.797945146350095 ], [ -78.695260337952661, 35.797672095189029 ], [ -78.695687671976941, 35.79740118937822 ], [ -78.695980521949963, 35.797392638372152 ], [ -78.696707727555832, 35.796976565642041 ], [ -78.696931101493618, 35.79661612549733 ], [ -78.696997246577709, 35.796166643490942 ], [ -78.697171703478233, 35.796041118127086 ], [ -78.698569090299628, 35.796062539578678 ], [ -78.698570901389814, 35.796018608100567 ], [ -78.699427827242303, 35.796056302762125 ], [ -78.700147419809312, 35.796015111400585 ], [ -78.701199294459585, 35.795895421021129 ], [ -78.703958007432718, 35.795412979834083 ], [ -78.704592788796475, 35.795281513786989 ], [ -78.705610066812056, 35.795004278304418 ], [ -78.706294083428375, 35.796083021959667 ], [ -78.706589246768502, 35.796178640843785 ], [ -78.707073476608471, 35.796207594297641 ], [ -78.707336136943638, 35.796484137224809 ], [ -78.707526411929422, 35.796834502437953 ], [ -78.707111226208568, 35.796810389339022 ], [ -78.707067495840974, 35.797220114669308 ], [ -78.707566277105528, 35.797262934921747 ], [ -78.707460481856472, 35.797998887331822 ], [ -78.705823548123789, 35.797915144275237 ], [ -78.705733398817699, 35.799068996714574 ], [ -78.70566202126443, 35.799065326214333 ], [ -78.705662410104594, 35.799246976358553 ], [ -78.707343092280013, 35.799333389071528 ], [ -78.707175451471343, 35.801003611803807 ], [ -78.704647293301505, 35.800953072391316 ], [ -78.70462568290597, 35.801703080939738 ], [ -78.707066629235101, 35.801752754035732 ], [ -78.707054993463345, 35.801852489180149 ], [ -78.706039701643704, 35.801842546834223 ], [ -78.706031528777771, 35.80239641819341 ], [ -78.707000575226459, 35.802417049268549 ], [ -78.706950898659628, 35.80253882532994 ], [ -78.706480494347261, 35.802740705743638 ], [ -78.704277429525646, 35.803238082240298 ], [ -78.703311260480973, 35.803268745356142 ], [ -78.701799674717279, 35.803192952109171 ], [ -78.699981311685789, 35.803316469311156 ] ] ], [ [ [ -78.710889436778984, 35.803547755760896 ], [ -78.710943605174634, 35.802465621352432 ], [ -78.714558532639586, 35.802597461300515 ], [ -78.714562219763252, 35.80242805397657 ], [ -78.711728549310919, 35.802319228263848 ], [ -78.711785761197035, 35.800758799140716 ], [ -78.711626006998202, 35.800755798280939 ], [ -78.711664469303514, 35.799671210706641 ], [ -78.712246146682972, 35.799681542335883 ], [ -78.712281492482603, 35.798703890133609 ], [ -78.717017909850611, 35.79887797132443 ], [ -78.719996624416424, 35.799078868016323 ], [ -78.724865213369682, 35.799510542010033 ], [ -78.724872940944365, 35.799481122557523 ], [ -78.725888772099239, 35.799657321173818 ], [ -78.725864683341555, 35.799737369163552 ], [ -78.726336834504451, 35.799840987733539 ], [ -78.726516137440328, 35.800108675735331 ], [ -78.726342238145335, 35.800593334689232 ], [ -78.72623923676943, 35.801036895555335 ], [ -78.726021442885227, 35.803622190843434 ], [ -78.725802339738109, 35.804143410637842 ], [ -78.725620236188263, 35.804416468114574 ], [ -78.723981838821572, 35.806006455243669 ], [ -78.722837036355529, 35.806344016017462 ], [ -78.721849904285548, 35.806102479398554 ], [ -78.718681184852542, 35.805018276289992 ], [ -78.717036453584996, 35.804593274970507 ], [ -78.714680749892196, 35.804111796329934 ], [ -78.713208501978372, 35.803758525780175 ], [ -78.710889436778984, 35.803547755760896 ] ] ] ] } },
{ "type": "Feature", "properties": { "OBJECTID": 50, "Precinct_N": "North Campus", "story_group": "main" }, "geometry": { "type": "MultiPolygon", "coordinates": [ [ [ [ -78.670776453465294, 35.789328667323005 ], [ -78.670908000882648, 35.788930329551683 ], [ -78.671201069497513, 35.788994495323855 ], [ -78.67106955925891, 35.789392725338445 ], [ -78.670776453465294, 35.789328667323005 ] ] ], [ [ [ -78.674058441023419, 35.789173967605542 ], [ -78.674327675897928, 35.789218771481444 ], [ -78.674255304396041, 35.78992558441044 ], [ -78.674037754036377, 35.789901117827611 ], [ -78.674058441023419, 35.789173967605542 ] ] ], [ [ [ -78.670150919660628, 35.78876261129119 ], [ -78.67028606395823, 35.788365500666046 ], [ -78.670873051136866, 35.788494245138239 ], [ -78.670602497965675, 35.789288409042804 ], [ -78.670406924959977, 35.789245513285756 ], [ -78.670541631107653, 35.788848310220416 ], [ -78.670150919660628, 35.78876261129119 ] ] ], [ [ [ -78.661459700729409, 35.787181838113248 ], [ -78.661429336189357, 35.786804898894488 ], [ -78.661766467158799, 35.786792885651074 ], [ -78.661768200307364, 35.786631852249876 ], [ -78.662042955658919, 35.786638771809457 ], [ -78.662015854837819, 35.787275607104043 ], [ -78.661542204721286, 35.787358088606922 ], [ -78.661459700729409, 35.787181838113248 ] ] ], [ [ [ -78.671979964251776, 35.789158546811926 ], [ -78.672111318461802, 35.788760765148659 ], [ -78.673046634949699, 35.788966064359101 ], [ -78.673019860807216, 35.789558382996013 ], [ -78.672511643947828, 35.789450061651642 ], [ -78.672566153486358, 35.789286720285325 ], [ -78.671979964251776, 35.789158546811926 ] ] ], [ [ [ -78.662383970448374, 35.786850014085829 ], [ -78.662700103170636, 35.786317520485355 ], [ -78.662970962840831, 35.786419145198337 ], [ -78.663030993408498, 35.786479826767845 ], [ -78.663040438877772, 35.787309504617305 ], [ -78.662191622648777, 35.787336788550931 ], [ -78.662192229173314, 35.786856762774747 ], [ -78.662383970448374, 35.786850014085829 ] ] ], [ [ [ -78.662029005628625, 35.78584308358873 ], [ -78.660983301673824, 35.785428673649946 ], [ -78.661322123714228, 35.784829665778766 ], [ -78.6613366772538, 35.784520974937983 ], [ -78.662036921499791, 35.78479152817706 ], [ -78.662029005628625, 35.78584308358873 ] ] ], [ [ [ -78.66407959622569, 35.786870850489422 ], [ -78.664184024681376, 35.786818685409379 ], [ -78.66582977873928, 35.787276386848667 ], [ -78.665675237749809, 35.787658995428785 ], [ -78.665672934122782, 35.787773917072023 ], [ -78.66406981480516, 35.787764779862322 ], [ -78.66407959622569, 35.786870850489422 ] ] ], [ [ [ -78.665145887933605, 35.783349614166362 ], [ -78.676973158576885, 35.787677454459271 ], [ -78.676628381191435, 35.788315628344833 ], [ -78.676618376352394, 35.788286015113812 ], [ -78.676513545037452, 35.788315981480856 ], [ -78.676336932063847, 35.788434313410747 ], [ -78.676067573956473, 35.788893821973822 ], [ -78.674786988054464, 35.788639316319184 ], [ -78.67470307349528, 35.788701779096023 ], [ -78.674638565336167, 35.789063001403541 ], [ -78.67453570914418, 35.788986025777071 ], [ -78.674536607645649, 35.788919439462482 ], [ -78.674422827308291, 35.788880712903733 ], [ -78.674403055619848, 35.788953176032742 ], [ -78.674256334103049, 35.789023854953541 ], [ -78.66823606879764, 35.787686344416635 ], [ -78.668208561510568, 35.787644995062124 ], [ -78.66815545759718, 35.787667426453375 ], [ -78.667731346300414, 35.787562016338832 ], [ -78.664253338084734, 35.786602108879535 ], [ -78.662391164853062, 35.786003092516154 ], [ -78.662696447257815, 35.785894647979632 ], [ -78.663000532308857, 35.785736460334299 ], [ -78.663373612111954, 35.785332231689395 ], [ -78.663585747491126, 35.784970281403254 ], [ -78.663935197864518, 35.784741295044967 ], [ -78.664394201964782, 35.784518285293224 ], [ -78.664599190052002, 35.784300161306618 ], [ -78.665145887933605, 35.783349614166362 ] ] ] ] } }
]
}
